{
    "links": {
        "self": "http://www.neowsapp.com/rest/v1/neo/3693845?api_key=iIulBulltgU6a56xZRHN4H3l9WmuAYTsLGpBGhQ2"
    },
    "id": "3693845",
    "neo_reference_id": "3693845",
    "name": "(2014 UF8)",
    "designation": "2014 UF8",
    "nasa_jpl_url": "http://ssd.jpl.nasa.gov/sbdb.cgi?sstr=3693845",
    "absolute_magnitude_h": 25.3,
    "estimated_diameter": {
        "kilometers": {
            "estimated_diameter_min": 0.0231502122,
            "estimated_diameter_max": 0.0517654482
        },
        "meters": {
            "estimated_diameter_min": 23.150212221,
            "estimated_diameter_max": 51.7654482198
        },
        "miles": {
            "estimated_diameter_min": 0.0143848705,
            "estimated_diameter_max": 0.0321655483
        },
        "feet": {
            "estimated_diameter_min": 75.9521422633,
            "estimated_diameter_max": 169.8341531374
        }
    },
    "is_potentially_hazardous_asteroid": false,
    "close_approach_data": [
        {
            "close_approach_date": "2010-12-10",
            "close_approach_date_full": "2010-Dec-10 23:25",
            "epoch_date_close_approach": 1292023500000,
            "relative_velocity": {
                "kilometers_per_second": "13.2214203625",
                "kilometers_per_hour": "47597.1133050724",
                "miles_per_hour": "29574.9952089212"
            },
            "miss_distance": {
                "astronomical": "0.3448993989",
                "lunar": "134.1658661721",
                "kilometers": "51596215.439720343",
                "miles": "32060401.6136650134"
            },
            "orbiting_body": "Earth"
        },
        {
            "close_approach_date": "2012-11-18",
            "close_approach_date_full": "2012-Nov-18 05:47",
            "epoch_date_close_approach": 1353217620000,
            "relative_velocity": {
                "kilometers_per_second": "8.4640656935",
                "kilometers_per_hour": "30470.6364966674",
                "miles_per_hour": "18933.268549832"
            },
            "miss_distance": {
                "astronomical": "0.1745520379",
                "lunar": "67.9007427431",
                "kilometers": "26112613.073999273",
                "miles": "16225625.3719370474"
            },
            "orbiting_body": "Earth"
        },
        {
            "close_approach_date": "2014-10-25",
            "close_approach_date_full": "2014-Oct-25 23:26",
            "epoch_date_close_approach": 1414279560000,
            "relative_velocity": {
                "kilometers_per_second": "7.6380848534",
                "kilometers_per_hour": "27497.1054723266",
                "miles_per_hour": "17085.6320086243"
            },
            "miss_distance": {
                "astronomical": "0.0458378508",
                "lunar": "17.8309239612",
                "kilometers": "6857244.845057796",
                "miles": "4260894.3664217448"
            },
            "orbiting_body": "Earth"
        },
        {
            "close_approach_date": "2016-10-09",
            "close_approach_date_full": "2016-Oct-09 09:24",
            "epoch_date_close_approach": 1476005040000,
            "relative_velocity": {
                "kilometers_per_second": "11.1092463047",
                "kilometers_per_hour": "39993.2866970687",
                "miles_per_hour": "24850.2730590758"
            },
            "miss_distance": {
                "astronomical": "0.1870720471",
                "lunar": "72.7710263219",
                "kilometers": "27985579.782699677",
                "miles": "17389432.9182504626"
            },
            "orbiting_body": "Earth"
        },
        {
            "close_approach_date": "2018-09-27",
            "close_approach_date_full": "2018-Sep-27 15:47",
            "epoch_date_close_approach": 1538063220000,
            "relative_velocity": {
                "kilometers_per_second": "15.9081572069",
                "kilometers_per_hour": "57269.3659447824",
                "miles_per_hour": "35584.9568560788"
            },
            "miss_distance": {
                "astronomical": "0.3672705995",
                "lunar": "142.8682632055",
                "kilometers": "54942899.398823065",
                "miles": "34139934.596625697"
            },
            "orbiting_body": "Earth"
        }
    ],
    "orbital_data": {
        "orbit_id": "7",
        "orbit_determination_date": "2017-04-06 08:38:04",
        "first_observation_date": "2014-10-21",
        "last_observation_date": "2014-10-26",
        "data_arc_in_days": 5,
        "observations_used": 55,
        "orbit_uncertainty": "7",
        "minimum_orbit_intersection": ".0466778",
        "jupiter_tisserand_invariant": "4.321",
        "epoch_osculation": "2459000.5",
        "eccentricity": ".3485359492239673",
        "semi_major_axis": "1.571754593749628",
        "inclination": "11.21517046670033",
        "ascending_node_longitude": "28.0542524524891",
        "orbital_period": "719.7398256928043",
        "perihelion_distance": "1.023941614469971",
        "perihelion_argument": "22.86118996435859",
        "aphelion_distance": "2.119567573029286",
        "perihelion_time": "2459133.104963905782",
        "mean_anomaly": "293.6735507721417",
        "mean_motion": ".5001807419138891",
        "equinox": "J2000",
        "orbit_class": {
            "orbit_class_type": "AMO",
            "orbit_class_description": "Near-Earth asteroid orbits similar to that of 1221 Amor",
            "orbit_class_range": "1.017 AU < q (perihelion) < 1.3 AU"
        }
    },
    "is_sentry_object": false
}